[{"OBJECT_NAME":"SKYSAT-A","OBJECT_ID":"2013-066C","EPOCH":"2026-04-27T09:25:55.104096","MEAN_MOTION":15.12675652,"ECCENTRICITY":0.0022997,"INCLINATION":97.3863,"RA_OF_ASC_NODE":168.4077,"ARG_OF_PERICENTER":127.7091,"MEAN_ANOMALY":232.6229,"EPHEMERIS_TYPE":0,"CLASSIFICATION_TYPE":"U","NORAD_CAT_ID":39418,"ELEMENT_SET_NO":999,"REV_AT_EPOCH":68080,"BSTAR":0.00020439,"MEAN_MOTION_DOT":3.534e-5,"MEAN_MOTION_DDOT":0},{"OBJECT_NAME":"SKYSAT-B","OBJECT_ID":"2014-037D","EPOCH":"2026-04-27T10:06:12.333312","MEAN_MOTION":14.87889636,"ECCENTRICITY":0.0007013,"INCLINATION":98.38,"RA_OF_ASC_NODE":73.5103,"ARG_OF_PERICENTER":84.0001,"MEAN_ANOMALY":276.2013,"EPHEMERIS_TYPE":0,"CLASSIFICATION_TYPE":"U","NORAD_CAT_ID":40072,"ELEMENT_SET_NO":999,"REV_AT_EPOCH":63841,"BSTAR":0.00017424,"MEAN_MOTION_DOT":1.534e-5,"MEAN_MOTION_DDOT":0},{"OBJECT_NAME":"SKYSAT-C1","OBJECT_ID":"2016-040C","EPOCH":"2026-04-27T01:42:26.863200","MEAN_MOTION":15.35425723,"ECCENTRICITY":0.00025539,"INCLINATION":96.962,"RA_OF_ASC_NODE":151.582,"ARG_OF_PERICENTER":163.0743,"MEAN_ANOMALY":197.0587,"EPHEMERIS_TYPE":0,"CLASSIFICATION_TYPE":"U","NORAD_CAT_ID":41601,"ELEMENT_SET_NO":999,"REV_AT_EPOCH":55002,"BSTAR":0.00027540086,"MEAN_MOTION_DOT":9.407e-5,"MEAN_MOTION_DDOT":0},{"OBJECT_NAME":"SKYSAT-C4","OBJECT_ID":"2016-058B","EPOCH":"2026-04-27T07:43:29.868672","MEAN_MOTION":15.47000471,"ECCENTRICITY":0.0003493,"INCLINATION":96.922,"RA_OF_ASC_NODE":141.2726,"ARG_OF_PERICENTER":94.2312,"MEAN_ANOMALY":265.9338,"EPHEMERIS_TYPE":0,"CLASSIFICATION_TYPE":"U","NORAD_CAT_ID":41771,"ELEMENT_SET_NO":999,"REV_AT_EPOCH":53760,"BSTAR":0.00038796,"MEAN_MOTION_DOT":0.00019527,"MEAN_MOTION_DDOT":0},{"OBJECT_NAME":"SKYSAT-C5","OBJECT_ID":"2016-058C","EPOCH":"2026-04-27T10:07:35.419008","MEAN_MOTION":15.33728238,"ECCENTRICITY":0.0004966,"INCLINATION":97.0527,"RA_OF_ASC_NODE":160.3417,"ARG_OF_PERICENTER":108.4795,"MEAN_ANOMALY":251.6989,"EPHEMERIS_TYPE":0,"CLASSIFICATION_TYPE":"U","NORAD_CAT_ID":41772,"ELEMENT_SET_NO":999,"REV_AT_EPOCH":53596,"BSTAR":0.00028876,"MEAN_MOTION_DOT":9.349e-5,"MEAN_MOTION_DDOT":0},{"OBJECT_NAME":"SKYSAT-C2","OBJECT_ID":"2016-058D","EPOCH":"2026-04-27T00:58:48.678816","MEAN_MOTION":15.40903809,"ECCENTRICITY":0.00021721,"INCLINATION":97.0217,"RA_OF_ASC_NODE":141.0953,"ARG_OF_PERICENTER":194.4288,"MEAN_ANOMALY":165.6898,"EPHEMERIS_TYPE":0,"CLASSIFICATION_TYPE":"U","NORAD_CAT_ID":41773,"ELEMENT_SET_NO":999,"REV_AT_EPOCH":53717,"BSTAR":0.00029492721,"MEAN_MOTION_DOT":0.00012048,"MEAN_MOTION_DDOT":0},{"OBJECT_NAME":"SKYSAT-C3","OBJECT_ID":"2016-058E","EPOCH":"2026-04-27T02:59:22.186176","MEAN_MOTION":15.50416321,"ECCENTRICITY":0.00027459,"INCLINATION":96.9094,"RA_OF_ASC_NODE":149.9935,"ARG_OF_PERICENTER":103.3123,"MEAN_ANOMALY":256.8437,"EPHEMERIS_TYPE":0,"CLASSIFICATION_TYPE":"U","NORAD_CAT_ID":41774,"ELEMENT_SET_NO":999,"REV_AT_EPOCH":53819,"BSTAR":0.00047166057,"MEAN_MOTION_DOT":0.00026789,"MEAN_MOTION_DDOT":0},{"OBJECT_NAME":"SKYSAT-C11","OBJECT_ID":"2017-068A","EPOCH":"2026-04-27T09:34:44.635008","MEAN_MOTION":15.55271075,"ECCENTRICITY":0.0001544,"INCLINATION":97.4283,"RA_OF_ASC_NODE":264.1433,"ARG_OF_PERICENTER":138.4902,"MEAN_ANOMALY":221.6469,"EPHEMERIS_TYPE":0,"CLASSIFICATION_TYPE":"U","NORAD_CAT_ID":42987,"ELEMENT_SET_NO":999,"REV_AT_EPOCH":47534,"BSTAR":0.00049233,"MEAN_MOTION_DOT":0.00033321,"MEAN_MOTION_DDOT":0},{"OBJECT_NAME":"SKYSAT-C10","OBJECT_ID":"2017-068B","EPOCH":"2026-04-27T08:28:04.740096","MEAN_MOTION":15.3373626,"ECCENTRICITY":0.0001655,"INCLINATION":97.4424,"RA_OF_ASC_NODE":253.7628,"ARG_OF_PERICENTER":109.5731,"MEAN_ANOMALY":250.569,"EPHEMERIS_TYPE":0,"CLASSIFICATION_TYPE":"U","NORAD_CAT_ID":42988,"ELEMENT_SET_NO":999,"REV_AT_EPOCH":47456,"BSTAR":0.00036201,"MEAN_MOTION_DOT":0.00011735,"MEAN_MOTION_DDOT":0},{"OBJECT_NAME":"SKYSAT-C9","OBJECT_ID":"2017-068C","EPOCH":"2026-04-27T07:50:52.317024","MEAN_MOTION":15.40303592,"ECCENTRICITY":0.0007523,"INCLINATION":97.4346,"RA_OF_ASC_NODE":254.2,"ARG_OF_PERICENTER":326.3097,"MEAN_ANOMALY":33.767,"EPHEMERIS_TYPE":0,"CLASSIFICATION_TYPE":"U","NORAD_CAT_ID":42989,"ELEMENT_SET_NO":999,"REV_AT_EPOCH":47492,"BSTAR":0.00040413,"MEAN_MOTION_DOT":0.00016229,"MEAN_MOTION_DDOT":0},{"OBJECT_NAME":"SKYSAT-C8","OBJECT_ID":"2017-068D","EPOCH":"2026-04-27T08:01:14.543904","MEAN_MOTION":15.35949482,"ECCENTRICITY":0.0001201,"INCLINATION":97.4442,"RA_OF_ASC_NODE":253.3548,"ARG_OF_PERICENTER":111.9583,"MEAN_ANOMALY":248.1788,"EPHEMERIS_TYPE":0,"CLASSIFICATION_TYPE":"U","NORAD_CAT_ID":42990,"ELEMENT_SET_NO":999,"REV_AT_EPOCH":47450,"BSTAR":0.0003949,"MEAN_MOTION_DOT":0.00013747,"MEAN_MOTION_DDOT":0},{"OBJECT_NAME":"SKYSAT-C7","OBJECT_ID":"2017-068E","EPOCH":"2026-04-27T09:23:05.620992","MEAN_MOTION":15.3589266,"ECCENTRICITY":0.0004649,"INCLINATION":97.4453,"RA_OF_ASC_NODE":254.3985,"ARG_OF_PERICENTER":291.1524,"MEAN_ANOMALY":68.9222,"EPHEMERIS_TYPE":0,"CLASSIFICATION_TYPE":"U","NORAD_CAT_ID":42991,"ELEMENT_SET_NO":999,"REV_AT_EPOCH":47457,"BSTAR":0.0003954,"MEAN_MOTION_DOT":0.00013743,"MEAN_MOTION_DDOT":0},{"OBJECT_NAME":"SKYSAT-C6","OBJECT_ID":"2017-068F","EPOCH":"2026-04-27T07:54:21.468096","MEAN_MOTION":15.33551417,"ECCENTRICITY":0.0001727,"INCLINATION":97.4488,"RA_OF_ASC_NODE":254.4738,"ARG_OF_PERICENTER":358.3104,"MEAN_ANOMALY":1.8132,"EPHEMERIS_TYPE":0,"CLASSIFICATION_TYPE":"U","NORAD_CAT_ID":42992,"ELEMENT_SET_NO":999,"REV_AT_EPOCH":47452,"BSTAR":0.00038749,"MEAN_MOTION_DOT":0.00012495,"MEAN_MOTION_DDOT":0},{"OBJECT_NAME":"SKYSAT-C12","OBJECT_ID":"2018-099AR","EPOCH":"2026-04-27T00:41:36.988512","MEAN_MOTION":15.47263083,"ECCENTRICITY":0.00034294,"INCLINATION":96.9312,"RA_OF_ASC_NODE":142.3758,"ARG_OF_PERICENTER":14.0749,"MEAN_ANOMALY":346.0597,"EPHEMERIS_TYPE":0,"CLASSIFICATION_TYPE":"U","NORAD_CAT_ID":43797,"ELEMENT_SET_NO":999,"REV_AT_EPOCH":41394,"BSTAR":0.00034529618,"MEAN_MOTION_DOT":0.00017524,"MEAN_MOTION_DDOT":0},{"OBJECT_NAME":"SKYSAT-C13","OBJECT_ID":"2018-099AW","EPOCH":"2026-04-27T08:54:13.121280","MEAN_MOTION":15.8786946,"ECCENTRICITY":0.0002926,"INCLINATION":96.9279,"RA_OF_ASC_NODE":165.4491,"ARG_OF_PERICENTER":97.2943,"MEAN_ANOMALY":262.8662,"EPHEMERIS_TYPE":0,"CLASSIFICATION_TYPE":"U","NORAD_CAT_ID":43802,"ELEMENT_SET_NO":999,"REV_AT_EPOCH":41486,"BSTAR":0.00065749,"MEAN_MOTION_DOT":0.0017931,"MEAN_MOTION_DDOT":0},{"OBJECT_NAME":"FLOCK 4Q-16","OBJECT_ID":"2023-174R","EPOCH":"2026-04-27T11:49:56.554752","MEAN_MOTION":15.47083304,"ECCENTRICITY":0.0005159,"INCLINATION":97.3828,"RA_OF_ASC_NODE":204.5161,"ARG_OF_PERICENTER":356.2595,"MEAN_ANOMALY":3.8615,"EPHEMERIS_TYPE":0,"CLASSIFICATION_TYPE":"U","NORAD_CAT_ID":58271,"ELEMENT_SET_NO":999,"REV_AT_EPOCH":13773,"BSTAR":0.00042999,"MEAN_MOTION_DOT":0.00021718,"MEAN_MOTION_DDOT":0},{"OBJECT_NAME":"FLOCK 4Q-11","OBJECT_ID":"2023-174T","EPOCH":"2026-04-27T11:41:21.602976","MEAN_MOTION":15.47533582,"ECCENTRICITY":0.0004807,"INCLINATION":97.3865,"RA_OF_ASC_NODE":205.0503,"ARG_OF_PERICENTER":353.7392,"MEAN_ANOMALY":6.3798,"EPHEMERIS_TYPE":0,"CLASSIFICATION_TYPE":"U","NORAD_CAT_ID":58273,"ELEMENT_SET_NO":999,"REV_AT_EPOCH":13774,"BSTAR":0.00040978,"MEAN_MOTION_DOT":0.00021015,"MEAN_MOTION_DDOT":0}]
