SKYSAT-A                
1 39418U 13066C   26117.39299889  .00003534  00000+0  20439-3 0  9990
2 39418  97.3863 168.4077 0022997 127.7091 232.6229 15.12675652680800
SKYSAT-B                
1 40072U 14037D   26117.42097608  .00001534  00000+0  17424-3 0  9994
2 40072  98.3800  73.5103 0007013  84.0001 276.2013 14.87889636638419
SKYSAT-C1               
1 41601U 16040C   26117.07114425  .00009407  00000+0  27540-3 0  9994
2 41601  96.9620 151.5820 0002553 163.0743 197.0587 15.35425723550023
SKYSAT-C4               
1 41771U 16058B   26117.32187348  .00019527  00000+0  38796-3 0  9992
2 41771  96.9220 141.2726 0003493  94.2312 265.9338 15.47000471537609
SKYSAT-C5               
1 41772U 16058C   26117.42193772  .00009349  00000+0  28876-3 0  9991
2 41772  97.0527 160.3417 0004966 108.4795 251.6989 15.33728238535964
SKYSAT-C2               
1 41773U 16058D   26117.04084119  .00012048  00000+0  29493-3 0  9990
2 41773  97.0217 141.0953 0002172 194.4288 165.6898 15.40903809537176
SKYSAT-C3               
1 41774U 16058E   26117.12456234  .00026789  00000+0  47166-3 0  9995
2 41774  96.9094 149.9935 0002745 103.3123 256.8437 15.50416321538192
SKYSAT-C11              
1 42987U 17068A   26117.39912772  .00033321  00000+0  49233-3 0  9994
2 42987  97.4283 264.1433 0001544 138.4902 221.6469 15.55271075475340
SKYSAT-C10              
1 42988U 17068B   26117.35283264  .00011735  00000+0  36201-3 0  9994
2 42988  97.4424 253.7628 0001655 109.5731 250.5690 15.33736260474568
SKYSAT-C9               
1 42989U 17068C   26117.32699441  .00016229  00000+0  40413-3 0  9993
2 42989  97.4346 254.2000 0007523 326.3097  33.7670 15.40303592474921
SKYSAT-C8               
1 42990U 17068D   26117.33419611  .00013747  00000+0  39490-3 0  9990
2 42990  97.4442 253.3548 0001201 111.9583 248.1788 15.35949482474506
SKYSAT-C7               
1 42991U 17068E   26117.39103728  .00013743  00000+0  39540-3 0  9998
2 42991  97.4453 254.3985 0004649 291.1524  68.9222 15.35892660474573
SKYSAT-C6               
1 42992U 17068F   26117.32941514  .00012495  00000+0  38749-3 0  9998
2 42992  97.4488 254.4738 0001727 358.3104   1.8132 15.33551417474524
SKYSAT-C12              
1 43797U 18099AR  26117.02890033  .00017524  00000+0  34530-3 0  9995
2 43797  96.9312 142.3758 0003429  14.0749 346.0597 15.47263083413949
SKYSAT-C13              
1 43802U 18099AW  26117.37098520  .00179310  00000+0  65749-3 0  9999
2 43802  96.9279 165.4491 0002926  97.2943 262.8662 15.87869460414863
FLOCK 4Q-16             
1 58271U 23174R   26117.49301568  .00021718  00000+0  42999-3 0  9997
2 58271  97.3828 204.5161 0005159 356.2595   3.8615 15.47083304137735
FLOCK 4Q-11             
1 58273U 23174T   26117.48705559  .00021015  00000+0  40978-3 0  9991
2 58273  97.3865 205.0503 0004807 353.7392   6.3798 15.47533582137749
